OBJECT_NAME,OBJECT_ID,EPOCH,MEAN_MOTION,ECCENTRICITY,INCLINATION,RA_OF_ASC_NODE,ARG_OF_PERICENTER,MEAN_ANOMALY,EPHEMERIS_TYPE,CLASSIFICATION_TYPE,NORAD_CAT_ID,ELEMENT_SET_NO,REV_AT_EPOCH,BSTAR,MEAN_MOTION_DOT,MEAN_MOTION_DDOT
ONEWEB-0289,2021-075E,2026-07-02T00:18:33.006528,13.17648499,.00021447,87.9139,2.9335,99.1975,260.9399,0,U,49079,999,23615,.55797924E-4,.35E-6,0
ONEWEB-0290,2021-075F,2026-07-01T23:39:52.584192,13.17649667,.00022139,87.9141,2.9112,102.2168,257.9212,0,U,49080,999,23556,-.22004354E-4,.4E-7,0
ONEWEB-0291,2021-075G,2026-07-01T23:17:58.767648,13.17648195,.00022301,87.9135,2.9207,89.2192,270.9195,0,U,49081,999,23555,-.91552489E-3,-.343E-5,0
ONEWEB-0293,2021-075H,2026-07-02T05:22:29.412192,13.17649416,.00020103,87.9131,2.8736,93.4659,266.6702,0,U,49082,999,23561,-.28717343E-4,.2E-7,0
ONEWEB-0294,2021-075J,2026-07-02T04:43:17.933376,13.12443387,.00020865,87.8956,347.6742,100.8348,259.3016,0,U,49083,999,23654,.33579084E-4,.25E-6,0
ONEWEB-0295,2021-075K,2026-07-02T05:21:16.968384,13.17648950,.00021506,87.9131,2.8778,85.9283,274.2094,0,U,49084,999,23557,.16103271E-4,.19E-6,0
ONEWEB-0296,2021-075L,2026-07-02T04:14:01.163040,13.12442671,.00021543,87.8961,347.6860,90.0069,270.1306,0,U,49085,999,23654,-.13925309E-2,-.488E-5,0
ONEWEB-0297,2021-075M,2026-07-02T04:57:56.223936,13.12443090,.00019001,87.8946,347.6889,90.9325,269.2021,0,U,49086,999,23715,.75806784E-3,.285E-5,0
ONEWEB-0298,2021-075N,2026-07-01T23:59:31.513920,13.17647615,.00018269,87.9133,2.9203,86.7606,273.3734,0,U,49087,999,23557,-.67282404E-4,-.13E-6,0
ONEWEB-0299,2021-075P,2026-07-02T05:29:45.904128,13.17650643,.00019593,87.9143,2.8563,85.9792,274.1563,0,U,49088,999,23558,-.47799389E-4,-.6E-7,0
ONEWEB-0300,2021-075Q,2026-07-01T23:17:36.561120,13.12443077,.0001555,87.8958,347.7169,83.4255,276.7051,0,U,49089,999,23714,.44890596E-3,.174E-5,0
ONEWEB-0301,2021-075R,2026-07-02T04:23:46.261248,13.12442622,.00014937,87.8955,347.6726,89.7629,270.3671,0,U,49090,999,23653,-.11936388E-2,-.417E-5,0
ONEWEB-0302,2021-075S,2026-07-02T04:04:14.980512,13.12441062,.00021062,87.8959,347.6873,97.3165,262.8203,0,U,49091,999,23651,-.10611011E-2,-.369E-5,0
ONEWEB-0304,2021-075T,2026-07-02T04:53:19.201344,13.17650892,.00019704,87.9134,2.8823,87.0475,273.0882,0,U,49092,999,23555,-.26760398E-4,.2E-7,0
ONEWEB-0305,2021-075U,2026-07-02T04:43:36.325344,13.17650518,.00021267,87.9143,2.8692,81.5104,278.6269,0,U,49093,999,23558,-.24271442E-3,-.81E-6,0
ONEWEB-0308,2021-075V,2026-07-02T03:54:29.559168,13.12441102,.00018283,87.8957,347.6809,93.7364,266.3974,0,U,49094,999,23652,-.57490381E-3,-.194E-5,0
ONEWEB-0309,2021-075W,2026-07-02T04:48:28.403136,13.17650031,.00022611,87.9134,2.8757,98.5150,261.6238,0,U,49095,999,23555,-.11721382E-3,-.33E-6,0
ONEWEB-0310,2021-075X,2026-07-02T04:16:27.318144,13.12441928,.00018439,87.8950,347.6981,94.3115,265.8224,0,U,49096,999,23715,-.15228642E-2,-.535E-5,0
ONEWEB-0311,2021-075Y,2026-07-02T04:58:10.313184,13.17652066,.00020219,87.9133,2.8744,77.9340,282.2018,0,U,49097,999,23560,.12121276E-3,.6E-6,0
ONEWEB-0312,2021-075Z,2026-07-02T05:20:03.227712,13.17648310,.00021936,87.9133,2.8817,87.5894,272.5489,0,U,49098,999,23558,-.1071123E-3,-.29E-6,0
ONEWEB-0313,2021-075AA,2026-07-02T05:27:09.215136,13.17649285,.00019349,87.9130,2.8862,86.8189,273.3164,0,U,49099,999,23557,-.21703304E-4,.4E-7,0
ONEWEB-0314,2021-075AB,2026-07-02T04:38:45.562560,13.17650291,.0002209,87.9144,2.8670,85.8467,274.2917,0,U,49100,999,23554,-.59804941E-4,-.1E-6,0
ONEWEB-0315,2021-075AC,2026-07-02T03:37:25.572288,13.12441143,.0001836,87.8956,347.6686,80.8588,279.2749,0,U,49101,999,23713,.75215868E-3,.283E-5,0
ONEWEB-0316,2021-075AD,2026-07-02T02:33:20.227104,13.18682016,.00018767,87.9180,332.4879,95.9622,264.1724,0,U,49102,999,23917,.17152515E-2,.689E-5,0
ONEWEB-0317,2021-075AE,2026-07-02T03:42:18.218592,13.12441797,.00021138,87.8955,347.6920,113.6090,246.5260,0,U,49103,999,23715,.44422302E-3,.173E-5,0
ONEWEB-0318,2021-075AF,2026-07-02T04:17:44.704032,13.18685995,.00018696,87.9182,332.4756,90.0695,270.0651,0,U,49104,999,23914,.10799176E-3,.55E-6,0
ONEWEB-0319,2021-075AG,2026-07-02T05:00:36.883872,13.17650056,.00018469,87.9131,2.8791,73.7565,286.3769,0,U,49105,999,23558,-.76832925E-4,-.17E-6,0
ONEWEB-0323,2021-075AH,2026-07-02T05:05:15.558432,13.12441923,.00019976,87.8958,347.6616,77.5253,282.6099,0,U,49106,999,23652,.93469695E-3,.349E-5,0
ONEWEB-0329,2021-075AJ,2026-07-02T05:12:46.175040,13.17650082,.00020106,87.9133,2.8783,88.0928,272.0433,0,U,49107,999,23556,-.87681951E-4,-.21E-6,0
ONEWEB-0330,2021-075AK,2026-07-02T05:25:08.992128,13.19183657,.00021419,87.9135,2.8902,91.3650,268.7728,0,U,49108,999,23560,-.44781675E-4,-.5E-7,0
