ONEWEB-0289             
1 49079U 21075E   26183.01288202  .00000035  00000+0  55798-4 0  9992
2 49079  87.9139   2.9335 0002144  99.1975 260.9399 13.17648499236158
ONEWEB-0290             
1 49080U 21075F   26182.98602528  .00000004  00000+0 -22004-4 0  9991
2 49080  87.9141   2.9112 0002213 102.2168 257.9212 13.17649667235565
ONEWEB-0291             
1 49081U 21075G   26182.97081907 -.00000343  00000+0 -91552-3 0  9993
2 49081  87.9135   2.9207 0002230  89.2192 270.9195 13.17648195235553
ONEWEB-0293             
1 49082U 21075H   26183.22395153  .00000002  00000+0 -28717-4 0  9999
2 49082  87.9131   2.8736 0002010  93.4659 266.6702 13.17649416235617
ONEWEB-0294             
1 49083U 21075J   26183.19673534  .00000025  00000+0  33579-4 0  9994
2 49083  87.8956 347.6742 0002086 100.8348 259.3016 13.12443387236544
ONEWEB-0295             
1 49084U 21075K   26183.22311306  .00000019  00000+0  16103-4 0  9992
2 49084  87.9131   2.8778 0002150  85.9283 274.2094 13.17648950235575
ONEWEB-0296             
1 49085U 21075L   26183.17640235 -.00000488  00000+0 -13925-2 0  9992
2 49085  87.8961 347.6860 0002154  90.0069 270.1306 13.12442671236547
ONEWEB-0297             
1 49086U 21075M   26183.20690074  .00000285  00000+0  75807-3 0  9994
2 49086  87.8946 347.6889 0001900  90.9325 269.2021 13.12443090237151
ONEWEB-0298             
1 49087U 21075N   26182.99967030 -.00000013  00000+0 -67282-4 0  9999
2 49087  87.9133   2.9203 0001826  86.7606 273.3734 13.17647615235579
ONEWEB-0299             
1 49088U 21075P   26183.22900352 -.00000006  00000+0 -47799-4 0  9994
2 49088  87.9143   2.8563 0001959  85.9792 274.1563 13.17650643235588
ONEWEB-0300             
1 49089U 21075Q   26182.97056205  .00000174  00000+0  44891-3 0  9998
2 49089  87.8958 347.7169 0001555  83.4255 276.7051 13.12443077237144
ONEWEB-0301             
1 49090U 21075R   26183.18317432 -.00000417  00000+0 -11936-2 0  9991
2 49090  87.8955 347.6726 0001493  89.7629 270.3671 13.12442622236531
ONEWEB-0302             
1 49091U 21075S   26183.16961783 -.00000369  00000+0 -10611-2 0  9999
2 49091  87.8959 347.6873 0002106  97.3165 262.8203 13.12441062236513
ONEWEB-0304             
1 49092U 21075T   26183.20369446  .00000002  00000+0 -26760-4 0  9990
2 49092  87.9134   2.8823 0001970  87.0475 273.0882 13.17650892235551
ONEWEB-0305             
1 49093U 21075U   26183.19694821 -.00000081  00000+0 -24271-3 0  9999
2 49093  87.9143   2.8692 0002126  81.5104 278.6269 13.17650518235586
ONEWEB-0308             
1 49094U 21075V   26183.16284212 -.00000194  00000+0 -57490-3 0  9990
2 49094  87.8957 347.6809 0001828  93.7364 266.3974 13.12441102236524
ONEWEB-0309             
1 49095U 21075W   26183.20032874 -.00000033  00000+0 -11721-3 0  9990
2 49095  87.9134   2.8757 0002261  98.5150 261.6238 13.17650031235554
ONEWEB-0310             
1 49096U 21075X   26183.17809396 -.00000535  00000+0 -15229-2 0  9991
2 49096  87.8950 347.6981 0001843  94.3115 265.8224 13.12441928237156
ONEWEB-0311             
1 49097U 21075Y   26183.20706381  .00000060  00000+0  12121-3 0  9996
2 49097  87.9133   2.8744 0002021  77.9340 282.2018 13.17652066235608
ONEWEB-0312             
1 49098U 21075Z   26183.22225958 -.00000029  00000+0 -10711-3 0  9995
2 49098  87.9133   2.8817 0002193  87.5894 272.5489 13.17648310235589
ONEWEB-0313             
1 49099U 21075AA  26183.22718999  .00000004  00000+0 -21703-4 0  9994
2 49099  87.9130   2.8862 0001934  86.8189 273.3164 13.17649285235578
ONEWEB-0314             
1 49100U 21075AB  26183.19358290 -.00000010  00000+0 -59805-4 0  9999
2 49100  87.9144   2.8670 0002209  85.8467 274.2917 13.17650291235549
ONEWEB-0315             
1 49101U 21075AC  26183.15099042  .00000283  00000+0  75216-3 0  9996
2 49101  87.8956 347.6686 0001836  80.8588 279.2749 13.12441143237135
ONEWEB-0316             
1 49102U 21075AD  26183.10648411  .00000689  00000+0  17153-2 0  9997
2 49102  87.9180 332.4879 0001876  95.9622 264.1724 13.18682016239176
ONEWEB-0317             
1 49103U 21075AE  26183.15437753  .00000173  00000+0  44422-3 0  9996
2 49103  87.8955 347.6920 0002113 113.6090 246.5260 13.12441797237151
ONEWEB-0318             
1 49104U 21075AF  26183.17898963  .00000055  00000+0  10799-3 0  9992
2 49104  87.9182 332.4756 0001869  90.0695 270.0651 13.18685995239143
ONEWEB-0319             
1 49105U 21075AG  26183.20876023 -.00000017  00000+0 -76833-4 0  9992
2 49105  87.9131   2.8791 0001846  73.7565 286.3769 13.17650056235587
ONEWEB-0323             
1 49106U 21075AH  26183.21198563  .00000349  00000+0  93470-3 0  9991
2 49106  87.8958 347.6616 0001997  77.5253 282.6099 13.12441923236529
ONEWEB-0329             
1 49107U 21075AJ  26183.21720110 -.00000021  00000+0 -87682-4 0  9999
2 49107  87.9133   2.8783 0002010  88.0928 272.0433 13.17650082235565
ONEWEB-0330             
1 49108U 21075AK  26183.22579852 -.00000005  00000+0 -44782-4 0  9992
2 49108  87.9135   2.8902 0002141  91.3650 268.7728 13.19183657235600
